{
    "links": {
        "self": "http://www.neowsapp.com/rest/v1/neo/3720861?api_key=iIulBulltgU6a56xZRHN4H3l9WmuAYTsLGpBGhQ2"
    },
    "id": "3720861",
    "neo_reference_id": "3720861",
    "name": "(2015 HM182)",
    "designation": "2015 HM182",
    "nasa_jpl_url": "http://ssd.jpl.nasa.gov/sbdb.cgi?sstr=3720861",
    "absolute_magnitude_h": 29.0,
    "estimated_diameter": {
        "kilometers": {
            "estimated_diameter_min": 0.0042126461,
            "estimated_diameter_max": 0.0094197631
        },
        "meters": {
            "estimated_diameter_min": 4.2126461056,
            "estimated_diameter_max": 9.4197630572
        },
        "miles": {
            "estimated_diameter_min": 0.0026176161,
            "estimated_diameter_max": 0.0058531676
        },
        "feet": {
            "estimated_diameter_min": 13.821017849,
            "estimated_diameter_max": 30.9047354285
        }
    },
    "is_potentially_hazardous_asteroid": false,
    "close_approach_data": [
        {
            "close_approach_date": "2015-03-30",
            "close_approach_date_full": "2015-Mar-30 19:07",
            "epoch_date_close_approach": 1427742420000,
            "relative_velocity": {
                "kilometers_per_second": "4.6947982572",
                "kilometers_per_hour": "16901.2737260712",
                "miles_per_hour": "10501.7942216247"
            },
            "miss_distance": {
                "astronomical": "0.0275019287",
                "lunar": "10.6982502643",
                "kilometers": "4114229.954411869",
                "miles": "2556463.9488630322"
            },
            "orbiting_body": "Earth"
        }
    ],
    "orbital_data": {
        "orbit_id": "3",
        "orbit_determination_date": "2017-04-06 08:33:57",
        "first_observation_date": "2015-04-18",
        "last_observation_date": "2015-04-19",
        "data_arc_in_days": 1,
        "observations_used": 8,
        "orbit_uncertainty": "9",
        "minimum_orbit_intersection": ".0269545",
        "jupiter_tisserand_invariant": "5.298",
        "epoch_osculation": "2457131.5",
        "eccentricity": ".2080334304481779",
        "semi_major_axis": "1.192658630992661",
        "inclination": "2.759977554504403",
        "ascending_node_longitude": "220.7159595029117",
        "orbital_period": "475.7432772739135",
        "perihelion_distance": ".9445457646336303",
        "perihelion_argument": "277.753986686266",
        "aphelion_distance": "1.440771497351692",
        "perihelion_time": "2457067.322211965514",
        "mean_anomaly": "48.56401508142094",
        "mean_motion": ".7567106403749069",
        "equinox": "J2000",
        "orbit_class": {
            "orbit_class_type": "APO",
            "orbit_class_description": "Near-Earth asteroid orbits which cross the Earth’s orbit similar to that of 1862 Apollo",
            "orbit_class_range": "a (semi-major axis) > 1.0 AU; q (perihelion) < 1.017 AU"
        }
    },
    "is_sentry_object": false
}